GLOBALSTAR M024         
1 25883U 99043A   25091.59140471 -.00000070  00000+0 -19613-3 0  9990
2 25883  51.9999 193.4494 0000841 338.0401 158.7595 11.10162040106357
GLOBALSTAR M027         
1 25884U 99043B   25091.56042443 -.00000044  00000+0  72301-3 0  9991
2 25884  52.0198 269.3321 0021040 225.8663 134.0400 11.04371785132778
GLOBALSTAR M054         
1 25885U 99043C   25091.37799795 -.00000086  00000+0 -37424-3 0  9994
2 25885  52.0154  49.9229 0006310  42.3844 125.8317 11.39211421110292
GLOBALSTAR M053         
1 25886U 99043D   25091.51371140 -.00000046  00000+0  64428-3 0  9990
2 25886  52.0025 352.4424 0003072 321.5496 211.3404 11.27663952110796
GLOBALSTAR M058         
1 25907U 99049A   25091.32380593 -.00000088  00000+0 -43743-4 0  9996
2 25907  51.9955 314.4227 0002720 112.6179 247.4943 11.93195809532368
GLOBALSTAR M050         
1 25908U 99049B   25091.41892515 -.00000009  00000+0  89238-3 0  9999
2 25908  52.0014 327.5796 0008375 236.6246 294.2177 12.07452334138914
GLOBALSTAR M033         
1 25909U 99049C   25091.60088197 -.00000004  00000+0  84608-3 0  9995
2 25909  51.9901 204.1989 0014123 106.6414 253.5985 12.20288385526399
GLOBALSTAR M055         
1 25910U 99049D   25091.50915823 -.00000059  00000+0  30398-3 0  9998
2 25910  52.0010 218.9387 0006397 336.1901  23.8653 12.29424449158858
